[{"OBJECT_NAME":"BNU-1 (JINGSHI 1)","OBJECT_ID":"2019-059B","EPOCH":"2026-03-09T22:44:13.004736","MEAN_MOTION":14.48293204,"ECCENTRICITY":0.00122993,"INCLINATION":98.5897,"RA_OF_ASC_NODE":196.2785,"ARG_OF_PERICENTER":317.1468,"MEAN_ANOMALY":42.8765,"EPHEMERIS_TYPE":0,"CLASSIFICATION_TYPE":"U","NORAD_CAT_ID":44529,"ELEMENT_SET_NO":999,"REV_AT_EPOCH":34262,"BSTAR":0.00022298879,"MEAN_MOTION_DOT":7.88e-6,"MEAN_MOTION_DDOT":0},{"OBJECT_NAME":"CZ-6A R\/B","OBJECT_ID":"2024-058B","EPOCH":"2026-03-09T22:13:55.818336","MEAN_MOTION":14.28615253,"ECCENTRICITY":0.00794171,"INCLINATION":98.793,"RA_OF_ASC_NODE":95.0746,"ARG_OF_PERICENTER":84.7388,"MEAN_ANOMALY":276.2849,"EPHEMERIS_TYPE":0,"CLASSIFICATION_TYPE":"U","NORAD_CAT_ID":59344,"ELEMENT_SET_NO":999,"REV_AT_EPOCH":10179,"BSTAR":5.1164894e-5,"MEAN_MOTION_DOT":8.8e-7,"MEAN_MOTION_DDOT":0}]
